{
  "type": "FeatureCollection",
  "features": [
    {
      "type": "Feature",
      "properties": {
        "norad_id": 38474,
        "name": "IRIDIUM 33 DEB",
        "group": "iridium-33-debris",
        "lat": 21.872260263538625,
        "lon": 7.559785766754298,
        "alt_km": 707.5142376818594,
        "timestamp": "2025-12-21T20:41:08.341829+00:00",
        "meta_object_name": "IRIDIUM 33 DEB",
        "meta_object_id": "1997-051AAB",
        "meta_epoch": "2025-12-21T07:20:31.212384",
        "meta_mean_motion": 14.50718538,
        "meta_eccentricity": 0.0027615,
        "meta_inclination": 86.3426,
        "meta_ra_of_asc_node": 6.3307,
        "meta_arg_of_pericenter": 61.1056,
        "meta_mean_anomaly": 299.2914,
        "meta_ephemeris_type": 0,
        "meta_classification_type": "U",
        "meta_norad_cat_id": 38474,
        "meta_element_set_no": 999,
        "meta_rev_at_epoch": 65442,
        "meta_bstar": 0.00039086,
        "meta_mean_motion_dot": 1.564e-05,
        "meta_mean_motion_ddot": 0,
        "tle_line1": "1 38474U 97051AAB 25355.30591681  .00001564  00000+0  39086-3 0  9995",
        "tle_line2": "2 38474  86.3426   6.3307 0027615  61.1056 299.2914 14.50718538654425"
      },
      "geometry": {
        "type": "Point",
        "coordinates": [
          7.559785766754298,
          21.872260263538625
        ]
      }
    },
    {
      "type": "Feature",
      "properties": {
        "norad_id": 39777,
        "name": "IRIDIUM 33 DEB",
        "group": "iridium-33-debris",
        "lat": -79.74387767808982,
        "lon": 13.594327808681406,
        "alt_km": 722.12556566084,
        "timestamp": "2025-12-21T20:41:08.341838+00:00",
        "meta_object_name": "IRIDIUM 33 DEB",
        "meta_object_id": "1997-051AAJ",
        "meta_epoch": "2025-12-17T11:37:29.440128",
        "meta_mean_motion": 14.56536598,
        "meta_eccentricity": 0.00601884,
        "meta_inclination": 85.9622,
        "meta_ra_of_asc_node": 172.7412,
        "meta_arg_of_pericenter": 170.5587,
        "meta_mean_anomaly": 189.6768,
        "meta_ephemeris_type": 0,
        "meta_classification_type": "U",
        "meta_norad_cat_id": 39777,
        "meta_element_set_no": 999,
        "meta_rev_at_epoch": 60254,
        "meta_bstar": 0.0020288102,
        "meta_mean_motion_dot": 9.279e-05,
        "meta_mean_motion_ddot": 0,
        "tle_line1": "1 39777U 97051AAJ 25351.48436852  .00009279  00000+0  20288-2 0  9999",
        "tle_line2": "2 39777  85.9622 172.7412 0060188 170.5587 189.6768 14.56536598602541"
      },
      "geometry": {
        "type": "Point",
        "coordinates": [
          13.594327808681406,
          -79.74387767808982
        ]
      }
    },
    {
      "type": "Feature",
      "properties": {
        "norad_id": 39778,
        "name": "IRIDIUM 33 DEB",
        "group": "iridium-33-debris",
        "lat": 21.180281899669215,
        "lon": 40.672335809500446,
        "alt_km": 706.6217937015163,
        "timestamp": "2025-12-21T20:41:08.341847+00:00",
        "meta_object_name": "IRIDIUM 33 DEB",
        "meta_object_id": "1997-051AAK",
        "meta_epoch": "2025-12-21T09:01:45.263712",
        "meta_mean_motion": 14.54315729,
        "meta_eccentricity": 0.00070178,
        "meta_inclination": 86.3767,
        "meta_ra_of_asc_node": 39.4763,
        "meta_arg_of_pericenter": 15.0988,
        "meta_mean_anomaly": 345.0427,
        "meta_ephemeris_type": 0,
        "meta_classification_type": "U",
        "meta_norad_cat_id": 39778,
        "meta_element_set_no": 999,
        "meta_rev_at_epoch": 60818,
        "meta_bstar": 0.00061222431,
        "meta_mean_motion_dot": 2.618e-05,
        "meta_mean_motion_ddot": 0,
        "tle_line1": "1 39778U 97051AAK 25355.37621833  .00002618  00000+0  61222-3 0  9991",
        "tle_line2": "2 39778  86.3767  39.4763 0007017  15.0988 345.0427 14.54315729608180"
      },
      "geometry": {
        "type": "Point",
        "coordinates": [
          40.672335809500446,
          21.180281899669215
        ]
      }
    },
    {
      "type": "Feature",
      "properties": {
        "norad_id": 39781,
        "name": "IRIDIUM 33 DEB",
        "group": "iridium-33-debris",
        "lat": 64.04602265898662,
        "lon": 66.728993063221,
        "alt_km": 892.8215827480053,
        "timestamp": "2025-12-21T20:41:08.341856+00:00",
        "meta_object_name": "IRIDIUM 33 DEB",
        "meta_object_id": "1997-051AAN",
        "meta_epoch": "2025-12-20T00:15:44.286336",
        "meta_mean_motion": 14.2080867,
        "meta_eccentricity": 0.01741047,
        "meta_inclination": 86.3716,
        "meta_ra_of_asc_node": 254.9822,
        "meta_arg_of_pericenter": 249.9468,
        "meta_mean_anomaly": 125.5554,
        "meta_ephemeris_type": 0,
        "meta_classification_type": "U",
        "meta_norad_cat_id": 39781,
        "meta_element_set_no": 999,
        "meta_rev_at_epoch": 8210,
        "meta_bstar": 0.0030068331,
        "meta_mean_motion_dot": 7.585e-05,
        "meta_mean_motion_ddot": 0,
        "tle_line1": "1 39781U 97051AAN 25354.01092924  .00007585  00000+0  30068-2 0  9999",
        "tle_line2": "2 39781  86.3716 254.9822 0174104 249.9468 125.5554 14.20808670 82106"
      },
      "geometry": {
        "type": "Point",
        "coordinates": [
          66.728993063221,
          64.04602265898662
        ]
      }
    },
    {
      "type": "Feature",
      "properties": {
        "norad_id": 40996,
        "name": "IRIDIUM 33 DEB",
        "group": "iridium-33-debris",
        "lat": -70.80685512688733,
        "lon": -172.29006115286901,
        "alt_km": 590.804089460993,
        "timestamp": "2025-12-21T20:41:08.341865+00:00",
        "meta_object_name": "IRIDIUM 33 DEB",
        "meta_object_id": "1997-051ABJ",
        "meta_epoch": "2025-12-21T06:48:04.268736",
        "meta_mean_motion": 14.9672554,
        "meta_eccentricity": 0.001126,
        "meta_inclination": 86.3507,
        "meta_ra_of_asc_node": 357.4159,
        "meta_arg_of_pericenter": 39.2145,
        "meta_mean_anomaly": 336.8251,
        "meta_ephemeris_type": 0,
        "meta_classification_type": "U",
        "meta_norad_cat_id": 40996,
        "meta_element_set_no": 999,
        "meta_rev_at_epoch": 62616,
        "meta_bstar": 0.0023808,
        "meta_mean_motion_dot": 0.00027327,
        "meta_mean_motion_ddot": 0,
        "tle_line1": "1 40996U 97051ABJ 25355.28338274  .00027327  00000+0  23808-2 0  9990",
        "tle_line2": "2 40996  86.3507 357.4159 0011260  39.2145 336.8251 14.96725540626169"
      },
      "geometry": {
        "type": "Point",
        "coordinates": [
          -172.29006115286901,
          -70.80685512688733
        ]
      }
    },
    {
      "type": "Feature",
      "properties": {
        "norad_id": 40998,
        "name": "IRIDIUM 33 DEB",
        "group": "iridium-33-debris",
        "lat": 79.37100311408923,
        "lon": -149.94254572997085,
        "alt_km": 729.4135038117365,
        "timestamp": "2025-12-21T20:41:08.341874+00:00",
        "meta_object_name": "IRIDIUM 33 DEB",
        "meta_object_id": "1997-051ABL",
        "meta_epoch": "2025-12-19T22:16:12.052992",
        "meta_mean_motion": 14.4511921,
        "meta_eccentricity": 0.000918,
        "meta_inclination": 86.3822,
        "meta_ra_of_asc_node": 50.5853,
        "meta_arg_of_pericenter": 65.4089,
        "meta_mean_anomaly": 59.4922,
        "meta_ephemeris_type": 0,
        "meta_classification_type": "U",
        "meta_norad_cat_id": 40998,
        "meta_element_set_no": 999,
        "meta_rev_at_epoch": 6785,
        "meta_bstar": 0.00031233,
        "meta_mean_motion_dot": 1.112e-05,
        "meta_mean_motion_ddot": 0,
        "tle_line1": "1 40998U 97051ABL 25353.92791728  .00001112  00000+0  31233-3 0  9994",
        "tle_line2": "2 40998  86.3822  50.5853 0009180  65.4089  59.4922 14.45119210 67852"
      },
      "geometry": {
        "type": "Point",
        "coordinates": [
          -149.94254572997085,
          79.37100311408923
        ]
      }
    },
    {
      "type": "Feature",
      "properties": {
        "norad_id": 46435,
        "name": "IRIDIUM 33 DEB",
        "group": "iridium-33-debris",
        "lat": -81.06123679984304,
        "lon": 165.6183998529709,
        "alt_km": 661.9263752619863,
        "timestamp": "2025-12-21T20:41:08.341883+00:00",
        "meta_object_name": "IRIDIUM 33 DEB",
        "meta_object_id": "1997-051ABN",
        "meta_epoch": "2025-12-13T20:22:29.882208",
        "meta_mean_motion": 14.32399442,
        "meta_eccentricity": 0.0208315,
        "meta_inclination": 86.2839,
        "meta_ra_of_asc_node": 193.4722,
        "meta_arg_of_pericenter": 272.7642,
        "meta_mean_anomaly": 103.0816,
        "meta_ephemeris_type": 0,
        "meta_classification_type": "U",
        "meta_norad_cat_id": 46435,
        "meta_element_set_no": 999,
        "meta_rev_at_epoch": 7932,
        "meta_bstar": 0.009141333,
        "meta_mean_motion_dot": 0.00031559,
        "meta_mean_motion_ddot": 0,
        "tle_line1": "1 46435U 97051ABN 25347.84895697  .00031559  00000+0  91413-2 0  9993",
        "tle_line2": "2 46435  86.2839 193.4722 0208315 272.7642 103.0816 14.32399442 79328"
      },
      "geometry": {
        "type": "Point",
        "coordinates": [
          165.6183998529709,
          -81.06123679984304
        ]
      }
    }
  ]
}